{
  "norad_id": 62256,
  "name": "PROBA-3 CSC",
  "history": [
    {
      "epoch": "2026-03-25T18:21:22.865472",
      "apogee_km": 60236.52417802962,
      "perigee_km": 968.3227760809341,
      "latitude_deg": -55.75550803098563,
      "longitude_deg": -168.9745939199347,
      "semi_major_axis_km": 36980.56047705528,
      "eccentricity": 0.80134266,
      "inclination_deg": 59.6466,
      "raan_deg": 104.4867,
      "arg_perigee_deg": 203.1103,
      "mean_anomaly_deg": 75.9449,
      "mean_motion_rev_day": 1.2207944
    }
  ]
}